{
  "type": "FeatureCollection",
  "features": [
    {
      "type": "Feature",
      "properties": { "name": "القاهرة" },
      "geometry": {
        "type": "Polygon",
        "coordinates": [
          [
            [31.1, 29.9],
            [31.4, 29.9],
            [31.4, 30.2],
            [31.1, 30.2],
            [31.1, 29.9]
          ]
        ]
      }
    },
    {
      "type": "Feature",
      "properties": { "name": "الجيزة" },
      "geometry": {
        "type": "Polygon",
        "coordinates": [
          [
            [30.8, 29.8],
            [31.1, 29.8],
            [31.1, 30.1],
            [30.8, 30.1],
            [30.8, 29.8]
          ]
        ]
      }
    },
    {
      "type": "Feature",
      "properties": { "name": "الإسكندرية" },
      "geometry": {
        "type": "Polygon",
        "coordinates": [
          [
            [29.8, 31.1],
            [30.1, 31.1],
            [30.1, 31.3],
            [29.8, 31.3],
            [29.8, 31.1]
          ]
        ]
      }
    }
  ]
}
